GLOBALSTAR M063 [+]     
1 26081U 00008A   23301.76927833 -.00000056  00000+0  38912-3 0  9996
2 26081  51.9945 244.9217 0003935 253.6899 109.7158 11.86146446 86683
GLOBALSTAR M060 [-]     
1 26083U 00008C   23302.12317378  .00000063  00000+0  15317-2 0  9996
2 26083  52.0019 287.0404 0003808 358.2676  79.9207 12.17617118 79802
GLOBALSTAR M064 [-]     
1 26084U 00008D   23301.86298020 -.00000046  00000+0  53498-3 0  9994
2 26084  52.0056 350.5488 0001338   0.7609 359.3225 11.88510921 96189
GLOBALSTAR M065 [+]     
1 31571U 07020A   23301.59079020 -.00000063  00000+0  22974-3 0  9993
2 31571  51.9889 245.0716 0010765  65.3812 105.7574 12.61956596757950
GLOBALSTAR M069 [+]     
1 31573U 07020C   23301.93759580 -.00000053  00000+0  28298-3 0  9993
2 31573  51.9941 200.1445 0000950  62.9209  17.9781 12.62259382759125
GLOBALSTAR M071 [P]     
1 31576U 07020F   23302.13758422 -.00000031  00000+0  40602-3 0  9992
2 31576  52.0055 204.5225 0000584  48.1301  99.6449 12.62271485759061
